{
  "type": "FeatureCollection",
  "features": [
    {
      "type": "Feature",
      "properties": {
        "norad_id": 32414,
        "name": "FENGYUN 1C DEB",
        "group": "fengyun-1c-debris",
        "lat": -21.263621588628553,
        "lon": 64.87335734284459,
        "alt_km": 803.7565360757362,
        "timestamp": "2025-12-16T17:51:11.218051+00:00",
        "meta_object_name": "FENGYUN 1C DEB",
        "meta_object_id": "1999-025DAA",
        "meta_epoch": "2025-12-08T10:10:57.710784",
        "meta_mean_motion": 14.18376108,
        "meta_eccentricity": 0.00450145,
        "meta_inclination": 98.8578,
        "meta_ra_of_asc_node": 53.0907,
        "meta_arg_of_pericenter": 11.0611,
        "meta_mean_anomaly": 349.1543,
        "meta_ephemeris_type": 0,
        "meta_classification_type": "U",
        "meta_norad_cat_id": 32414,
        "meta_element_set_no": 999,
        "meta_rev_at_epoch": 93671,
        "meta_bstar": 0.0020734301,
        "meta_mean_motion_dot": 4.277e-05,
        "meta_mean_motion_ddot": 0,
        "tle_line1": "1 32414U 99025DAA 25342.42427906  .00004277  00000+0  20734-2 0  9996",
        "tle_line2": "2 32414  98.8578  53.0907 0045014  11.0611 349.1543 14.18376108936713"
      },
      "geometry": {
        "type": "Point",
        "coordinates": [
          64.87335734284459,
          -21.263621588628553
        ]
      }
    },
    {
      "type": "Feature",
      "properties": {
        "norad_id": 32419,
        "name": "FENGYUN 1C DEB",
        "group": "fengyun-1c-debris",
        "lat": 13.619556488302386,
        "lon": -76.38202550894592,
        "alt_km": 655.4234279792563,
        "timestamp": "2025-12-16T17:51:11.218062+00:00",
        "meta_object_name": "FENGYUN 1C DEB",
        "meta_object_id": "1999-025DAF",
        "meta_epoch": "2025-12-11T15:09:56.013984",
        "meta_mean_motion": 14.09908253,
        "meta_eccentricity": 0.02839501,
        "meta_inclination": 97.9459,
        "meta_ra_of_asc_node": 281.0334,
        "meta_arg_of_pericenter": 32.1797,
        "meta_mean_anomaly": 329.6358,
        "meta_ephemeris_type": 0,
        "meta_classification_type": "U",
        "meta_norad_cat_id": 32419,
        "meta_element_set_no": 999,
        "meta_rev_at_epoch": 63555,
        "meta_bstar": 0.0013854285,
        "meta_mean_motion_dot": 3.513e-05,
        "meta_mean_motion_ddot": 0,
        "tle_line1": "1 32419U 99025DAF 25345.63189831  .00003513  00000+0  13854-2 0  9996",
        "tle_line2": "2 32419  97.9459 281.0334 0283950  32.1797 329.6358 14.09908253635552"
      },
      "geometry": {
        "type": "Point",
        "coordinates": [
          -76.38202550894592,
          13.619556488302386
        ]
      }
    },
    {
      "type": "Feature",
      "properties": {
        "norad_id": 32422,
        "name": "FENGYUN 1C DEB",
        "group": "fengyun-1c-debris",
        "lat": 7.390286871061362,
        "lon": 120.64718322617681,
        "alt_km": 881.9093438147529,
        "timestamp": "2025-12-16T17:51:11.218072+00:00",
        "meta_object_name": "FENGYUN 1C DEB",
        "meta_object_id": "1999-025DAJ",
        "meta_epoch": "2025-12-10T15:48:54.548352",
        "meta_mean_motion": 13.98002768,
        "meta_eccentricity": 0.0298224,
        "meta_inclination": 97.8401,
        "meta_ra_of_asc_node": 116.4609,
        "meta_arg_of_pericenter": 298.6669,
        "meta_mean_anomaly": 58.4812,
        "meta_ephemeris_type": 0,
        "meta_classification_type": "U",
        "meta_norad_cat_id": 32422,
        "meta_element_set_no": 999,
        "meta_rev_at_epoch": 63104,
        "meta_bstar": 0.00051946,
        "meta_mean_motion_dot": 1.039e-05,
        "meta_mean_motion_ddot": 0,
        "tle_line1": "1 32422U 99025DAJ 25344.65896468  .00001039  00000+0  51946-3 0  9998",
        "tle_line2": "2 32422  97.8401 116.4609 0298224 298.6669  58.4812 13.98002768631040"
      },
      "geometry": {
        "type": "Point",
        "coordinates": [
          120.64718322617681,
          7.390286871061362
        ]
      }
    },
    {
      "type": "Feature",
      "properties": {
        "norad_id": 32425,
        "name": "FENGYUN 1C DEB",
        "group": "fengyun-1c-debris",
        "lat": -31.096381680061018,
        "lon": -45.96305002760545,
        "alt_km": 798.7242308170216,
        "timestamp": "2025-12-16T17:51:11.218083+00:00",
        "meta_object_name": "FENGYUN 1C DEB",
        "meta_object_id": "1999-025DAM",
        "meta_epoch": "2025-12-12T16:13:12.115488",
        "meta_mean_motion": 14.16741504,
        "meta_eccentricity": 0.02316015,
        "meta_inclination": 96.7012,
        "meta_ra_of_asc_node": 135.0318,
        "meta_arg_of_pericenter": 299.6477,
        "meta_mean_anomaly": 58.1818,
        "meta_ephemeris_type": 0,
        "meta_classification_type": "U",
        "meta_norad_cat_id": 32425,
        "meta_element_set_no": 999,
        "meta_rev_at_epoch": 69534,
        "meta_bstar": 0.00075748036,
        "meta_mean_motion_dot": 1.938e-05,
        "meta_mean_motion_ddot": 0,
        "tle_line1": "1 32425U 99025DAM 25346.67583467  .00001938  00000+0  75748-3 0  9991",
        "tle_line2": "2 32425  96.7012 135.0318 0231601 299.6477  58.1818 14.16741504695342"
      },
      "geometry": {
        "type": "Point",
        "coordinates": [
          -45.96305002760545,
          -31.096381680061018
        ]
      }
    },
    {
      "type": "Feature",
      "properties": {
        "norad_id": 32430,
        "name": "FENGYUN 1C DEB",
        "group": "fengyun-1c-debris",
        "lat": 30.775439492390817,
        "lon": 9.8779003168274,
        "alt_km": 1173.831088159679,
        "timestamp": "2025-12-16T17:51:11.218093+00:00",
        "meta_object_name": "FENGYUN 1C DEB",
        "meta_object_id": "1999-025DAS",
        "meta_epoch": "2025-12-15T18:54:47.069856",
        "meta_mean_motion": 13.70146563,
        "meta_eccentricity": 0.03696862,
        "meta_inclination": 98.6974,
        "meta_ra_of_asc_node": 14.2416,
        "meta_arg_of_pericenter": 261.8702,
        "meta_mean_anomaly": 94.0363,
        "meta_ephemeris_type": 0,
        "meta_classification_type": "U",
        "meta_norad_cat_id": 32430,
        "meta_element_set_no": 999,
        "meta_rev_at_epoch": 91245,
        "meta_bstar": 0.0015242891,
        "meta_mean_motion_dot": 2.134e-05,
        "meta_mean_motion_ddot": 0,
        "tle_line1": "1 32430U 99025DAS 25349.78804479  .00002134  00000+0  15243-2 0  9993",
        "tle_line2": "2 32430  98.6974  14.2416 0369686 261.8702  94.0363 13.70146563912451"
      },
      "geometry": {
        "type": "Point",
        "coordinates": [
          9.8779003168274,
          30.775439492390817
        ]
      }
    },
    {
      "type": "Feature",
      "properties": {
        "norad_id": 32432,
        "name": "FENGYUN 1C DEB",
        "group": "fengyun-1c-debris",
        "lat": -26.983566508711405,
        "lon": 31.01943687085935,
        "alt_km": 627.8102024142345,
        "timestamp": "2025-12-16T17:51:11.218103+00:00",
        "meta_object_name": "FENGYUN 1C DEB",
        "meta_object_id": "1999-025DAU",
        "meta_epoch": "2025-12-15T20:29:00.767904",
        "meta_mean_motion": 14.52521175,
        "meta_eccentricity": 0.01726265,
        "meta_inclination": 98.1711,
        "meta_ra_of_asc_node": 25.9566,
        "meta_arg_of_pericenter": 296.037,
        "meta_mean_anomaly": 62.3141,
        "meta_ephemeris_type": 0,
        "meta_classification_type": "U",
        "meta_norad_cat_id": 32432,
        "meta_element_set_no": 999,
        "meta_rev_at_epoch": 70740,
        "meta_bstar": 0.0010653661,
        "meta_mean_motion_dot": 5.242e-05,
        "meta_mean_motion_ddot": 0,
        "tle_line1": "1 32432U 99025DAU 25349.85348111  .00005242  00000+0  10654-2 0  9993",
        "tle_line2": "2 32432  98.1711  25.9566 0172626 296.0370  62.3141 14.52521175707405"
      },
      "geometry": {
        "type": "Point",
        "coordinates": [
          31.01943687085935,
          -26.983566508711405
        ]
      }
    },
    {
      "type": "Feature",
      "properties": {
        "norad_id": 32440,
        "name": "FENGYUN 1C DEB",
        "group": "fengyun-1c-debris",
        "lat": 45.13401594238163,
        "lon": -163.5819408852742,
        "alt_km": 828.2186217246199,
        "timestamp": "2025-12-16T17:51:11.218114+00:00",
        "meta_object_name": "FENGYUN 1C DEB",
        "meta_object_id": "1999-025DBC",
        "meta_epoch": "2025-12-12T07:47:51.906912",
        "meta_mean_motion": 13.6125644,
        "meta_eccentricity": 0.03219473,
        "meta_inclination": 99.1542,
        "meta_ra_of_asc_node": 201.5922,
        "meta_arg_of_pericenter": 91.933,
        "meta_mean_anomaly": 271.871,
        "meta_ephemeris_type": 0,
        "meta_classification_type": "U",
        "meta_norad_cat_id": 32440,
        "meta_element_set_no": 999,
        "meta_rev_at_epoch": 60280,
        "meta_bstar": 0.0043210943,
        "meta_mean_motion_dot": 4.61e-05,
        "meta_mean_motion_ddot": 0,
        "tle_line1": "1 32440U 99025DBC 25346.32490633  .00004610  00000+0  43211-2 0  9991",
        "tle_line2": "2 32440  99.1542 201.5922 0321947  91.9330 271.8710 13.61256440602801"
      },
      "geometry": {
        "type": "Point",
        "coordinates": [
          -163.5819408852742,
          45.13401594238163
        ]
      }
    }
  ]
}